[{"OBJECT_NAME":"ONEWEB-0300","OBJECT_ID":"2021-075Q","EPOCH":"2026-01-02T06:55:26.130432","MEAN_MOTION":13.12442946,"ECCENTRICITY":0.00019939,"INCLINATION":87.8925,"RA_OF_ASC_NODE":23.5992,"ARG_OF_PERICENTER":87.2892,"MEAN_ANOMALY":272.8464,"EPHEMERIS_TYPE":0,"CLASSIFICATION_TYPE":"U","NORAD_CAT_ID":49089,"ELEMENT_SET_NO":999,"REV_AT_EPOCH":21344,"BSTAR":0.00031329227,"MEAN_MOTION_DOT":1.25e-6,"MEAN_MOTION_DDOT":0},{"OBJECT_NAME":"ONEWEB-0301","OBJECT_ID":"2021-075R","EPOCH":"2026-01-02T02:52:41.704896","MEAN_MOTION":13.1244456,"ECCENTRICITY":0.00020318,"INCLINATION":87.8923,"RA_OF_ASC_NODE":23.6339,"ARG_OF_PERICENTER":87.0751,"MEAN_ANOMALY":273.061,"EPHEMERIS_TYPE":0,"CLASSIFICATION_TYPE":"U","NORAD_CAT_ID":49090,"ELEMENT_SET_NO":999,"REV_AT_EPOCH":21278,"BSTAR":0.0012306336,"MEAN_MOTION_DOT":4.55e-6,"MEAN_MOTION_DDOT":0},{"OBJECT_NAME":"ONEWEB-0302","OBJECT_ID":"2021-075S","EPOCH":"2026-01-02T02:33:09.555840","MEAN_MOTION":13.12443335,"ECCENTRICITY":0.00014175,"INCLINATION":87.8924,"RA_OF_ASC_NODE":23.6448,"ARG_OF_PERICENTER":98.9947,"MEAN_ANOMALY":261.1342,"EPHEMERIS_TYPE":0,"CLASSIFICATION_TYPE":"U","NORAD_CAT_ID":49091,"ELEMENT_SET_NO":999,"REV_AT_EPOCH":21276,"BSTAR":0.00072167404,"MEAN_MOTION_DOT":2.72e-6,"MEAN_MOTION_DDOT":0},{"OBJECT_NAME":"ONEWEB-0304","OBJECT_ID":"2021-075T","EPOCH":"2026-01-02T07:46:11.199072","MEAN_MOTION":13.17647673,"ECCENTRICITY":0.00018224,"INCLINATION":87.9098,"RA_OF_ASC_NODE":38.8388,"ARG_OF_PERICENTER":100.6733,"MEAN_ANOMALY":259.4604,"EPHEMERIS_TYPE":0,"CLASSIFICATION_TYPE":"U","NORAD_CAT_ID":49092,"ELEMENT_SET_NO":999,"REV_AT_EPOCH":21173,"BSTAR":0.00016004824,"MEAN_MOTION_DOT":7.5e-7,"MEAN_MOTION_DDOT":0},{"OBJECT_NAME":"ONEWEB-0305","OBJECT_ID":"2021-075U","EPOCH":"2026-01-02T03:57:47.868768","MEAN_MOTION":13.17649482,"ECCENTRICITY":0.00019603,"INCLINATION":87.9101,"RA_OF_ASC_NODE":38.8482,"ARG_OF_PERICENTER":109.1039,"MEAN_ANOMALY":251.0305,"EPHEMERIS_TYPE":0,"CLASSIFICATION_TYPE":"U","NORAD_CAT_ID":49093,"ELEMENT_SET_NO":999,"REV_AT_EPOCH":21174,"BSTAR":3.913892e-6,"MEAN_MOTION_DOT":1.4e-7,"MEAN_MOTION_DDOT":0},{"OBJECT_NAME":"ONEWEB-0308","OBJECT_ID":"2021-075V","EPOCH":"2026-01-02T07:52:43.693536","MEAN_MOTION":13.12444033,"ECCENTRICITY":0.00017169,"INCLINATION":87.8927,"RA_OF_ASC_NODE":23.5939,"ARG_OF_PERICENTER":91.3161,"MEAN_ANOMALY":268.8164,"EPHEMERIS_TYPE":0,"CLASSIFICATION_TYPE":"U","NORAD_CAT_ID":49094,"ELEMENT_SET_NO":999,"REV_AT_EPOCH":21280,"BSTAR":-1.5393831e-5,"MEAN_MOTION_DOT":7.0e-8,"MEAN_MOTION_DDOT":0},{"OBJECT_NAME":"ONEWEB-0309","OBJECT_ID":"2021-075W","EPOCH":"2026-01-02T07:41:21.081696","MEAN_MOTION":13.17649688,"ECCENTRICITY":0.0001348,"INCLINATION":87.9098,"RA_OF_ASC_NODE":38.8329,"ARG_OF_PERICENTER":101.7495,"MEAN_ANOMALY":258.3788,"EPHEMERIS_TYPE":0,"CLASSIFICATION_TYPE":"U","NORAD_CAT_ID":49095,"ELEMENT_SET_NO":999,"REV_AT_EPOCH":21173,"BSTAR":5.9033874e-5,"MEAN_MOTION_DOT":3.6e-7,"MEAN_MOTION_DDOT":0},{"OBJECT_NAME":"ONEWEB-0310","OBJECT_ID":"2021-075X","EPOCH":"2026-01-02T02:45:22.451616","MEAN_MOTION":13.12445097,"ECCENTRICITY":0.00016643,"INCLINATION":87.8917,"RA_OF_ASC_NODE":23.6715,"ARG_OF_PERICENTER":89.7148,"MEAN_ANOMALY":270.4172,"EPHEMERIS_TYPE":0,"CLASSIFICATION_TYPE":"U","NORAD_CAT_ID":49096,"ELEMENT_SET_NO":999,"REV_AT_EPOCH":21340,"BSTAR":0.0011251032,"MEAN_MOTION_DOT":4.18e-6,"MEAN_MOTION_DDOT":0},{"OBJECT_NAME":"ONEWEB-0311","OBJECT_ID":"2021-075Y","EPOCH":"2026-01-02T02:22:59.891520","MEAN_MOTION":13.17650947,"ECCENTRICITY":0.00020141,"INCLINATION":87.9098,"RA_OF_ASC_NODE":38.8722,"ARG_OF_PERICENTER":105.084,"MEAN_ANOMALY":255.0514,"EPHEMERIS_TYPE":0,"CLASSIFICATION_TYPE":"U","NORAD_CAT_ID":49097,"ELEMENT_SET_NO":999,"REV_AT_EPOCH":21175,"BSTAR":0.00011496024,"MEAN_MOTION_DOT":5.8e-7,"MEAN_MOTION_DDOT":0},{"OBJECT_NAME":"ONEWEB-0312","OBJECT_ID":"2021-075Z","EPOCH":"2026-01-02T02:44:53.907648","MEAN_MOTION":13.17649791,"ECCENTRICITY":0.0001692,"INCLINATION":87.9086,"RA_OF_ASC_NODE":38.893,"ARG_OF_PERICENTER":107.9832,"MEAN_ANOMALY":252.1484,"EPHEMERIS_TYPE":0,"CLASSIFICATION_TYPE":"U","NORAD_CAT_ID":49098,"ELEMENT_SET_NO":999,"REV_AT_EPOCH":21173,"BSTAR":0.00019513141,"MEAN_MOTION_DOT":8.9e-7,"MEAN_MOTION_DDOT":0},{"OBJECT_NAME":"ONEWEB-0313","OBJECT_ID":"2021-075AA","EPOCH":"2026-01-02T02:51:59.626368","MEAN_MOTION":13.17649124,"ECCENTRICITY":0.00018098,"INCLINATION":87.9084,"RA_OF_ASC_NODE":38.8993,"ARG_OF_PERICENTER":98.9913,"MEAN_ANOMALY":261.1424,"EPHEMERIS_TYPE":0,"CLASSIFICATION_TYPE":"U","NORAD_CAT_ID":49099,"ELEMENT_SET_NO":999,"REV_AT_EPOCH":21172,"BSTAR":8.2418658e-5,"MEAN_MOTION_DOT":4.5e-7,"MEAN_MOTION_DDOT":0},{"OBJECT_NAME":"ONEWEB-0314","OBJECT_ID":"2021-075AB","EPOCH":"2026-01-02T02:03:35.295552","MEAN_MOTION":13.17649728,"ECCENTRICITY":0.0001757,"INCLINATION":87.91,"RA_OF_ASC_NODE":38.8612,"ARG_OF_PERICENTER":111.189,"MEAN_ANOMALY":248.943,"EPHEMERIS_TYPE":0,"CLASSIFICATION_TYPE":"U","NORAD_CAT_ID":49100,"ELEMENT_SET_NO":999,"REV_AT_EPOCH":21169,"BSTAR":0.00031956026,"MEAN_MOTION_DOT":1.37e-6,"MEAN_MOTION_DDOT":0},{"OBJECT_NAME":"ONEWEB-0315","OBJECT_ID":"2021-075AC","EPOCH":"2026-01-02T07:35:39.852672","MEAN_MOTION":13.12442422,"ECCENTRICITY":0.00021,"INCLINATION":87.8928,"RA_OF_ASC_NODE":23.5817,"ARG_OF_PERICENTER":97.9752,"MEAN_ANOMALY":262.1615,"EPHEMERIS_TYPE":0,"CLASSIFICATION_TYPE":"U","NORAD_CAT_ID":49101,"ELEMENT_SET_NO":999,"REV_AT_EPOCH":21341,"BSTAR":-0.0010147359,"MEAN_MOTION_DOT":-3.52e-6,"MEAN_MOTION_DDOT":0},{"OBJECT_NAME":"ONEWEB-0316","OBJECT_ID":"2021-075AD","EPOCH":"2026-01-02T07:01:41.387232","MEAN_MOTION":13.18685276,"ECCENTRICITY":0.00017984,"INCLINATION":87.9171,"RA_OF_ASC_NODE":8.4084,"ARG_OF_PERICENTER":91.3515,"MEAN_ANOMALY":268.7823,"EPHEMERIS_TYPE":0,"CLASSIFICATION_TYPE":"U","NORAD_CAT_ID":49102,"ELEMENT_SET_NO":999,"REV_AT_EPOCH":21534,"BSTAR":-0.00042464389,"MEAN_MOTION_DOT":-1.54e-6,"MEAN_MOTION_DDOT":0},{"OBJECT_NAME":"ONEWEB-0317","OBJECT_ID":"2021-075AE","EPOCH":"2026-01-02T02:02:59.195904","MEAN_MOTION":13.11885078,"ECCENTRICITY":0.00011106,"INCLINATION":87.8924,"RA_OF_ASC_NODE":23.6473,"ARG_OF_PERICENTER":72.5773,"MEAN_ANOMALY":287.5477,"EPHEMERIS_TYPE":0,"CLASSIFICATION_TYPE":"U","NORAD_CAT_ID":49103,"ELEMENT_SET_NO":999,"REV_AT_EPOCH":21340,"BSTAR":-0.001223675,"MEAN_MOTION_DOT":-4.24e-6,"MEAN_MOTION_DDOT":0},{"OBJECT_NAME":"ONEWEB-0318","OBJECT_ID":"2021-075AF","EPOCH":"2026-01-02T06:56:56.252544","MEAN_MOTION":13.18684978,"ECCENTRICITY":0.00019323,"INCLINATION":87.9173,"RA_OF_ASC_NODE":8.3967,"ARG_OF_PERICENTER":95.5438,"MEAN_ANOMALY":264.5914,"EPHEMERIS_TYPE":0,"CLASSIFICATION_TYPE":"U","NORAD_CAT_ID":49104,"ELEMENT_SET_NO":999,"REV_AT_EPOCH":21530,"BSTAR":-0.00055621289,"MEAN_MOTION_DOT":-2.06e-6,"MEAN_MOTION_DDOT":0},{"OBJECT_NAME":"ONEWEB-0319","OBJECT_ID":"2021-075AG","EPOCH":"2026-01-02T02:25:24.971808","MEAN_MOTION":13.17648594,"ECCENTRICITY":0.00022969,"INCLINATION":87.9089,"RA_OF_ASC_NODE":38.8899,"ARG_OF_PERICENTER":102.9233,"MEAN_ANOMALY":257.2156,"EPHEMERIS_TYPE":0,"CLASSIFICATION_TYPE":"U","NORAD_CAT_ID":49105,"ELEMENT_SET_NO":999,"REV_AT_EPOCH":21173,"BSTAR":0.0002197796,"MEAN_MOTION_DOT":9.8e-7,"MEAN_MOTION_DDOT":0}]
