ONEWEB-0300             
1 49089U 21075Q   26002.28849688  .00000125  00000+0  31329-3 0  9996
2 49089  87.8925  23.5992 0001993  87.2892 272.8464 13.12442946213442
ONEWEB-0301             
1 49090U 21075R   26002.11992714  .00000455  00000+0  12306-2 0  9998
2 49090  87.8923  23.6339 0002031  87.0751 273.0610 13.12444560212780
ONEWEB-0302             
1 49091U 21075S   26002.10636060  .00000272  00000+0  72167-3 0  9996
2 49091  87.8924  23.6448 0001417  98.9947 261.1342 13.12443335212765
ONEWEB-0304             
1 49092U 21075T   26002.32374073  .00000075  00000+0  16005-3 0  9994
2 49092  87.9098  38.8388 0001822 100.6733 259.4604 13.17647673211737
ONEWEB-0305             
1 49093U 21075U   26002.16513737  .00000014  00000+0  39139-5 0  9997
2 49093  87.9101  38.8482 0001960 109.1039 251.0305 13.17649482211741
ONEWEB-0308             
1 49094U 21075V   26002.32828349  .00000007  00000+0 -15394-4 0  9993
2 49094  87.8927  23.5939 0001716  91.3161 268.8164 13.12444033212809
ONEWEB-0309             
1 49095U 21075W   26002.32038289  .00000036  00000+0  59034-4 0  9990
2 49095  87.9098  38.8329 0001348 101.7495 258.3788 13.17649688211734
ONEWEB-0310             
1 49096U 21075X   26002.11484319  .00000418  00000+0  11251-2 0  9998
2 49096  87.8917  23.6715 0001664  89.7148 270.4172 13.12445097213407
ONEWEB-0311             
1 49097U 21075Y   26002.09930430  .00000058  00000+0  11496-3 0  9998
2 49097  87.9098  38.8722 0002014 105.0840 255.0514 13.17650947211758
ONEWEB-0312             
1 49098U 21075Z   26002.11451282  .00000089  00000+0  19513-3 0  9997
2 49098  87.9086  38.8930 0001692 107.9832 252.1484 13.17649791211737
ONEWEB-0313             
1 49099U 21075AA  26002.11944012  .00000045  00000+0  82419-4 0  9994
2 49099  87.9084  38.8993 0001809  98.9913 261.1424 13.17649124211727
ONEWEB-0314             
1 49100U 21075AB  26002.08582518  .00000137  00000+0  31956-3 0  9993
2 49100  87.9100  38.8612 0001757 111.1890 248.9430 13.17649728211697
ONEWEB-0315             
1 49101U 21075AC  26002.31643348 -.00000352  00000+0 -10147-2 0  9998
2 49101  87.8928  23.5817 0002100  97.9752 262.1615 13.12442422213416
ONEWEB-0316             
1 49102U 21075AD  26002.29284013 -.00000154  00000+0 -42464-3 0  9994
2 49102  87.9171   8.4084 0001798  91.3515 268.7823 13.18685276215342
ONEWEB-0317             
1 49103U 21075AE  26002.08540736 -.00000424  00000+0 -12237-2 0  9993
2 49103  87.8924  23.6473 0001110  72.5773 287.5477 13.11885078213408
ONEWEB-0318             
1 49104U 21075AF  26002.28953996 -.00000206  00000+0 -55621-3 0  9995
2 49104  87.9173   8.3967 0001932  95.5438 264.5914 13.18684978215304
ONEWEB-0319             
1 49105U 21075AG  26002.10098347  .00000098  00000+0  21978-3 0  9992
2 49105  87.9089  38.8899 0002296 102.9233 257.2156 13.17648594211736
